NORAD_CAT_ID,OBJECT_NAME,OBJECT_TYPE,EPOCH,MEAN_MOTION,ECCENTRICITY,INCLINATION,RA_OF_ASC_NODE,ARG_OF_PERICENTER,MEAN_ANOMALY,BSTAR,MEAN_MOTION_DOT,MEAN_MOTION_DDOT,TLE_LINE0,TLE_LINE1,TLE_LINE2,SEMIMAJOR_AXIS,PERIOD,APOGEE,PERIGEE,DECAYED
51769.0,STARLINK-3621,PAYLOAD,2022-08-11 22:00:00,15.08843559,0.0001626,53.2174,80.9579,63.8214,85.7005,9.4454e-05,1.216e-05,0.0,0 STARLINK-3621,1 51769U 22017B   22223.91667824  .00001216  00000-0  94454-4 0  9994,2 51769  53.2174  80.9579 0001626  63.8214  85.7005 15.08843559 26921,6917.87,95.437,540.859,538.61,0.0
51769.0,STARLINK-3621,PAYLOAD,2022-08-12 14:00:01,15.08831403,0.0001619,53.2175,77.9632,74.0289,98.7062,0.0018082,0.000286,0.0,0 STARLINK-3621,1 51769U 22017B   22224.58334491  .00028600  00000-0  18082-2 0  9996,2 51769  53.2175  77.9632 0001619  74.0289  98.7062 15.08831403  1303,6917.906999999997,95.438,540.8919999999998,538.6519999999998,0.0
51769.0,STARLINK-3621,PAYLOAD,2022-08-12 22:00:01,15.088375199999998,0.0001698,53.2173,76.4684,65.8414,118.5526,0.00059598,9.209e-05,0.0,0 STARLINK-3621,1 51769U 22017B   22224.91668981  .00009209  00000-0  59598-3 0  9999,2 51769  53.2173  76.4684 0001698  65.8414 118.5526 15.08837520 27082,6917.888000000001,95.438,540.928,538.578,0.0
51769.0,STARLINK-3621,PAYLOAD,2022-08-13 14:00:01,15.08823887,0.0001488,53.2173,73.4739,74.6907,132.8246,0.0011703,0.00018378,0.0,0 STARLINK-3621,1 51769U 22017B   22225.58334491  .00018378  00000-0  11703-2 0  9991,2 51769  53.2173  73.4739 0001488  74.6907 132.8246 15.08823887  1308,6917.93,95.439,540.8240000000002,538.765,0.0
51769.0,STARLINK-3621,PAYLOAD,2022-08-13 22:00:00,15.08822215,0.0001595999999999,53.2171,71.9795,65.4232,153.6788,0.00091826,0.00014349,0.0,0 STARLINK-3621,1 51769U 22017B   22225.91667824  .00014349  00000-0  91826-3 0  9996,2 51769  53.2171  71.9795 0001596  65.4232 153.6788 15.08822215  1306,6917.935,95.439,540.904,538.696,0.0
51769.0,STARLINK-3621,PAYLOAD,2022-08-14 14:00:01,15.08844466,0.000149,53.2169,68.9846,76.3716,165.9013,0.00079291,0.00012355,0.0,0 STARLINK-3621,1 51769U 22017B   22226.58334491  .00012355  00000-0  79291-3 0  9998,2 51769  53.2169  68.9846 0001490  76.3716 165.9013 15.08844466  1306,6917.8669999999975,95.437,540.763,538.701,0.0
51769.0,STARLINK-3621,PAYLOAD,2022-08-14 16:00:01,15.08859523,0.0001485,53.217,68.6109,74.0212,261.2114,-0.0011169,-0.00018029,0.0,0 STARLINK-3621,1 51769U 22017B   22226.66668981 -.00018029  00000-0 -11169-2 0  9996,2 51769  53.2170  68.6109 0001485  74.0212 261.2114 15.08859523 27341,6917.821,95.436,540.7130000000002,538.658,0.0
51769.0,STARLINK-3621,PAYLOAD,2022-08-14 22:00:00,15.08837929,0.0001565999999999,53.2168,67.4898,66.8345,187.0465,0.00080961,0.0001262,0.0,0 STARLINK-3621,1 51769U 22017B   22226.91667824  .00012620  00000-0  80961-3 0  9995,2 51769  53.2168  67.4898 0001566  66.8345 187.0465 15.08837929  1304,6917.887,95.438,540.835,538.668,0.0
51769.0,STARLINK-3621,PAYLOAD,2022-08-15 14:00:01,15.08834683,0.0001396999999999,53.2167,64.4953,75.5939,201.4756,0.00042181,6.431e-05,0.0,0 STARLINK-3621,1 51769U 22017B   22227.58334491  .00006431  00000-0  42181-3 0  9995,2 51769  53.2167  64.4953 0001397  75.5939 201.4756 15.08834683  1308,6917.897,95.438,540.7280000000002,538.795,0.0
51769.0,STARLINK-3621,PAYLOAD,2022-08-15 22:00:00,15.08819699,0.0001505,53.2168,63.0006,65.2898,223.3744,0.0018274,0.00028899,0.0,0 STARLINK-3621,1 51769U 22017B   22227.91667824  .00028899  00000-0  18274-2 0  9998,2 51769  53.2168  63.0006 0001505  65.2898 223.3744 15.08819699  1304,6917.941999999999,95.439,540.849,538.766,0.0
51769.0,STARLINK-3621,PAYLOAD,2022-08-16 00:00:00,15.08815275,0.0001467,53.2167,62.6265,63.7592,317.8023,0.0028914,0.00045998,0.0,0 STARLINK-3621,1 51769U 22017B   22228.00001157  .00045998  00000-0  28914-2 0  9991,2 51769  53.2167  62.6265 0001467  63.7592 317.8023 15.08815275 27545,6917.956,95.439,540.836,538.806,0.0
51769.0,STARLINK-3621,PAYLOAD,2022-08-16 14:00:01,15.08854949,0.0001414,53.2169,60.006,74.0355,237.8063,6.7047e-05,7.8e-06,0.0,0 STARLINK-3621,1 51769U 22017B   22228.58334491  .00000780  00000-0  67047-4 0  9996,2 51769  53.2169  60.0060 0001414  74.0355 237.8063 15.08854949 27632,6917.835,95.437,540.678,538.722,0.0
51769.0,STARLINK-3621,PAYLOAD,2022-08-16 22:00:00,15.08837381,0.0001478,53.2171,58.5114,63.1122,260.3461,-0.00034872,-5.833e-05,0.0,0 STARLINK-3621,1 51769U 22017B   22228.91667824 -.00005833  00000-0 -34872-3 0  9997,2 51769  53.2171  58.5114 0001478  63.1122 260.3461 15.08837381  1308,6917.888000000001,95.438,540.776,538.731,0.0
51769.0,STARLINK-3621,PAYLOAD,2022-08-17 08:00:01,15.08814311,0.0001291999999999,53.2173,56.6391,68.6381,359.3126,0.0020179,0.0003194999999999,0.0,0 STARLINK-3621,1 51769U 22017B   22229.33334491  .00031950  00000-0  20179-2 0  9996,2 51769  53.2173  56.6391 0001292  68.6381 359.3126 15.08814311 27748,6917.959,95.439,540.7180000000002,538.93,0.0
51769.0,STARLINK-3621,PAYLOAD,2022-08-17 16:00:00,15.08859238,0.000143,53.2175,55.1435,67.4291,12.0957,-0.0020649,-0.00033018,0.0,0 STARLINK-3621,1 51769U 22017B   22229.66667824 -.00033018  00000-0 -20649-2 0  9992,2 51769  53.2175  55.1435 0001430  67.4291  12.0957 15.08859238  1300,6917.821999999999,95.436,540.6759999999998,538.697,0.0
51769.0,STARLINK-3621,PAYLOAD,2022-08-18 08:00:01,15.08807894,0.0001439,53.2179,52.1501,69.0925,33.6295,0.0026421999999999,0.00041976,0.0,0 STARLINK-3621,1 51769U 22017B   22230.33334491  .00041976  00000-0  26422-2 0  9994,2 51769  53.2179  52.1501 0001439  69.0925  33.6295 15.08807894 27893,6917.979,95.44,540.839,538.8480000000002,0.0
51769.0,STARLINK-3621,PAYLOAD,2022-08-18 14:00:01,15.08846842,0.0001513,53.2182,51.0282,70.1958,311.1984,-0.00037725,-6.288e-05,0.0,0 STARLINK-3621,1 51769U 22017B   22230.58334491 -.00006288  00000-0 -37725-3 0  9999,2 51769  53.2182  51.0282 0001513  70.1958 311.1984 15.08846842  1306,6917.859,95.437,540.771,538.678,0.0
51769.0,STARLINK-3621,PAYLOAD,2022-08-18 22:00:00,15.08823437,0.0001616,53.218,49.5341,60.8461,332.1525,0.0027803,0.00044218,0.0,0 STARLINK-3621,1 51769U 22017B   22230.91667824  .00044218  00000-0  27803-2 0  9993,2 51769  53.2180  49.5341 0001616  60.8461 332.1525 15.08823437  1300,6917.931,95.439,540.914,538.678,0.0
51769.0,STARLINK-3621,PAYLOAD,2022-08-19 06:00:00,15.08803128,0.0001543,53.2179,48.0359,65.5722,339.036,3.9921e-05,3.47e-06,0.0,0 STARLINK-3621,1 51769U 22017B   22231.25001157  .00000347  00000-0  39921-4 0  9993,2 51769  53.2179  48.0359 0001543  65.5722 339.0360 15.08803128 28039,6917.993,95.44,540.9259999999998,538.7909999999998,0.0
51769.0,STARLINK-3621,PAYLOAD,2022-08-19 14:00:01,15.08848649,0.0001419,53.2186,46.5394,67.7975,348.3948,-0.00074247,-0.00012088,0.0,0 STARLINK-3621,1 51769U 22017B   22231.58334491 -.00012088  00000-0 -74247-3 0  9995,2 51769  53.2186  46.5394 0001419  67.7975 348.3948 15.08848649  1308,6917.854,95.437,540.701,538.737,0.0
51769.0,STARLINK-3621,PAYLOAD,2022-08-19 16:00:00,15.08849926,0.0001456,53.2185,46.1658,65.0555,84.037,-0.0012614,-0.00020312,0.0,0 STARLINK-3621,1 51769U 22017B   22231.66667824 -.00020312  00000-0 -12614-2 0  9991,2 51769  53.2185  46.1658 0001456  65.0555  84.0370 15.08849926 28099,6917.85,95.437,540.722,538.7080000000002,0.0
51769.0,STARLINK-3621,PAYLOAD,2022-08-19 22:00:00,15.08828745,0.0001538,53.2185,45.0445,59.9982,7.7945,0.00085503,0.00013342,0.0,0 STARLINK-3621,1 51769U 22017B   22231.91667824  .00013342  00000-0  85503-3 0  9990,2 51769  53.2185  45.0445 0001538  59.9982   7.7945 15.08828745  1309,6917.915,95.438,540.844,538.716,0.0
51769.0,STARLINK-3621,PAYLOAD,2022-08-20 14:00:01,15.08841341,0.0001506,53.2186,42.0507,69.9686,20.9784,-0.0012239,-0.00019714,0.0,0 STARLINK-3621,1 51769U 22017B   22232.58334491 -.00019714  00000-0 -12239-2 0  9991,2 51769  53.2186  42.0507 0001506  69.9686  20.9784 15.08841341  1308,6917.876,95.437,540.783,538.6990000000002,0.0
51769.0,STARLINK-3621,PAYLOAD,2022-08-20 22:00:00,15.08807634,0.000156,53.2183,40.5557,61.8615,40.6778,0.0031511,0.00050174,0.0,0 STARLINK-3621,1 51769U 22017B   22232.91667824  .00050174  00000-0  31511-2 0  9994,2 51769  53.2183  40.5557 0001560  61.8615  40.6778 15.08807634  1305,6917.979,95.44,540.924,538.765,0.0
51769.0,STARLINK-3621,PAYLOAD,2022-08-21 00:00:00,15.08827738,0.0001557,53.2181,40.1812,62.172,133.254,0.00079122,0.00012322,0.0,0 STARLINK-3621,1 51769U 22017B   22233.00001157  .00012322  00000-0  79122-3 0  9990,2 51769  53.2181  40.1812 0001557  62.1720 133.2540 15.08827738 28302,6917.918000000002,95.438,540.86,538.706,0.0
51769.0,STARLINK-3621,PAYLOAD,2022-08-21 14:00:01,15.08855625,0.000148,53.2183,37.5619,71.0491,54.6481,-0.0015937999999999,-0.00025574,0.0,0 STARLINK-3621,1 51769U 22017B   22233.58334491 -.00025574  00000-0 -15938-2 0  9992,2 51769  53.2183  37.5619 0001480  71.0491  54.6481 15.08855625  1305,6917.833000000001,95.437,540.721,538.674,0.0
51769.0,STARLINK-3621,PAYLOAD,2022-08-22 00:00:00,15.08846953,0.0001520999999999,53.2177,35.6923,63.8183,166.3774,6.1767e-05,6.95e-06,0.0,0 STARLINK-3621,1 51769U 22017B   22234.00001157  .00000695  00000-0  61767-4 0  9998,2 51769  53.2177  35.6923 0001521  63.8183 166.3774 15.08846953  1308,6917.859,95.437,540.776,538.672,0.0
51769.0,STARLINK-3621,PAYLOAD,2022-08-22 12:00:00,15.08862787,0.0001529,53.2179,33.4467,74.7508,352.844,-0.0029593,-0.00047107,0.0,0 STARLINK-3621,1 51769U 22017B   22234.50001157 -.00047107  00000-0 -29593-2 0  9993,2 51769  53.2179  33.4467 0001529  74.7508 352.8440 15.08862787  1304,6917.811,95.436,540.7330000000002,538.618,0.0
51769.0,STARLINK-3621,PAYLOAD,2022-08-22 22:00:00,15.08809361,0.0001631999999999,53.2174,31.5777,65.4588,106.6379,0.0026588,0.00042245,0.0,0 STARLINK-3621,1 51769U 22017B   22234.91667824  .00042245  00000-0  26588-2 0  9994,2 51769  53.2174  31.5777 0001632  65.4588 106.6379 15.08809361  1307,6917.974,95.439,540.9680000000002,538.71,0.0
